NORAD_CAT_ID,OBJECT_NAME,OBJECT_TYPE,EPOCH,MEAN_MOTION,ECCENTRICITY,INCLINATION,RA_OF_ASC_NODE,ARG_OF_PERICENTER,MEAN_ANOMALY,BSTAR,MEAN_MOTION_DOT,MEAN_MOTION_DDOT,TLE_LINE0,TLE_LINE1,TLE_LINE2,SEMIMAJOR_AXIS,PERIOD,APOGEE,PERIGEE,DECAYED
53973.0,STARLINK-5156,PAYLOAD,2022-11-26 14:00:01,15.08829033,0.0001628,53.2126,206.993,61.0336,150.6462,0.0022511,0.0003571,0.0,0 STARLINK-5156,1 53973U 22125K   22330.58334491  .00035710  00000-0  22511-2 0  9995,2 53973  53.2126 206.9930 0001628  61.0336 150.6462 15.08829033  1300,6917.9140000000025,95.438,540.905,538.653,0.0
53973.0,STARLINK-5156,PAYLOAD,2022-11-26 22:00:00,15.08849581,0.0001735,53.2126,205.4981,55.5955,167.68599999999995,-0.0025797,-0.00041121,0.0,0 STARLINK-5156,1 53973U 22125K   22330.91667824 -.00041121  00000-0 -25797-2 0  9995,2 53973  53.2126 205.4981 0001735  55.5955 167.6860 15.08849581  8413,6917.851,95.437,540.9159999999998,538.516,0.0
53973.0,STARLINK-5156,PAYLOAD,2022-11-27 14:00:01,15.08792857,0.0001699,53.2127,202.5035,63.1121,183.3489,0.0024869,0.00039462,0.0,0 STARLINK-5156,1 53973U 22125K   22331.58334491  .00039462  00000-0  24869-2 0  9992,2 53973  53.2127 202.5035 0001699  63.1121 183.3489 15.08792857  8517,6918.024,95.441,541.065,538.714,0.0
53973.0,STARLINK-5156,PAYLOAD,2022-11-27 22:00:00,15.08816795,0.0001841,53.2127,201.0088,58.0703,199.9485,-0.00045702,-7.55e-05,0.0,0 STARLINK-5156,1 53973U 22125K   22331.91667824 -.00007550  00000-0 -45702-3 0  9993,2 53973  53.2127 201.0088 0001841  58.0703 199.9485 15.08816795  1304,6917.951,95.439,541.09,538.543,0.0
53973.0,STARLINK-5156,PAYLOAD,2022-11-28 08:00:01,15.08834321,0.0001764,53.2126,199.1373,59.9419,302.5333,-0.0015718,-0.00025213,0.0,0 STARLINK-5156,1 53973U 22125K   22332.33334491 -.00025213  00000-0 -15718-2 0  9990,2 53973  53.2126 199.1373 0001764  59.9419 302.5333 15.08834321  8637,6917.898,95.438,540.9830000000002,538.5419999999998,0.0
53973.0,STARLINK-5156,PAYLOAD,2022-11-28 22:00:01,15.08832396,0.0001862,53.2126,196.5194,59.8071,232.9993,-0.00029737,-5.017e-05,0.0,0 STARLINK-5156,1 53973U 22125K   22332.91668981 -.00005017  00000-0 -29737-3 0  9995,2 53973  53.2126 196.5194 0001862  59.8071 232.9993 15.08832396  8729,6917.904,95.438,541.057,538.481,0.0
53973.0,STARLINK-5156,PAYLOAD,2022-11-29 14:00:01,15.08828716,0.0001751999999999,53.214,193.5248,67.4762,248.5095,0.0021365,0.00033868,0.0,0 STARLINK-5156,1 53973U 22125K   22333.58335648  .00033868  00000-0  21365-2 0  9991,2 53973  53.2140 193.5248 0001752  67.4762 248.5095 15.08828716  1306,6917.915,95.438,540.992,538.568,0.0
53973.0,STARLINK-5156,PAYLOAD,2022-11-29 22:00:00,15.08841638,0.00019,53.2139,192.0302,61.8729,265.6477,-0.00027977,-4.738e-05,0.0,0 STARLINK-5156,1 53973U 22125K   22333.91667824 -.00004738  00000-0 -27977-3 0  9994,2 53973  53.2139 192.0302 0001900  61.8729 265.6477 15.08841638  8876,6917.875,95.437,541.055,538.4259999999998,0.0
53973.0,STARLINK-5156,PAYLOAD,2022-11-30 14:00:01,15.08850645,0.000174,53.214,189.0351,68.7402,282.0407,-0.0015244999999999,-0.00024476,0.0,0 STARLINK-5156,1 53973U 22125K   22334.58335648 -.00024476  00000-0 -15245-2 0  9999,2 53973  53.2140 189.0351 0001740  68.7402 282.0407 15.08850645  1309,6917.848000000001,95.437,540.9169999999998,538.509,0.0
53973.0,STARLINK-5156,PAYLOAD,2022-11-30 22:00:00,15.087914199999998,0.0001816,53.2154,187.5402,64.4213,297.9033,0.0050346,0.00080649,0.0,0 STARLINK-5156,1 53973U 22125K   22334.91667824  .00080649  00000-0  50346-2 0  9993,2 53973  53.2154 187.5402 0001816  64.4213 297.9033 15.08791420  1306,6918.029,95.441,541.15,538.638,0.0
53973.0,STARLINK-5156,PAYLOAD,2022-12-01 06:00:00,15.088462,0.0001785,53.2141,186.0433,60.8148,313.0863,-0.0021462,-0.00034289,0.0,0 STARLINK-5156,1 53973U 22125K   22335.25001157 -.00034289  00000-0 -21462-2 0  9990,2 53973  53.2141 186.0433 0001785  60.8148 313.0863 15.08846200  9072,6917.861,95.437,540.961,538.492,0.0
53973.0,STARLINK-5156,PAYLOAD,2022-12-01 14:00:01,15.0883238,0.0001778,53.2138,184.5464,67.6116,317.885,0.0017058,0.00026959,0.0,0 STARLINK-5156,1 53973U 22125K   22335.58334491  .00026959  00000-0  17058-2 0  9995,2 53973  53.2138 184.5464 0001778  67.6116 317.8850 15.08832380  1307,6917.904,95.438,540.999,538.539,0.0
53973.0,STARLINK-5156,PAYLOAD,2022-12-01 22:00:00,15.0883576,0.0001941,53.2139,183.0517,61.3275,335.7644,0.0004855,7.446e-05,0.0,0 STARLINK-5156,1 53973U 22125K   22335.91667824  .00007446  00000-0  48550-3 0  9993,2 53973  53.2139 183.0517 0001941  61.3275 335.7644 15.08835760  1305,6917.893,95.438,541.101,538.4159999999998,0.0
53973.0,STARLINK-5156,PAYLOAD,2022-12-02 00:00:00,15.08819617,0.0001915,53.2139,182.6778,59.6626,70.3329,0.0029021,0.00046176,0.0,0 STARLINK-5156,1 53973U 22125K   22336.00001157  .00046176  00000-0  29021-2 0  9999,2 53973  53.2139 182.6778 0001915  59.6626  70.3329 15.08819617  9189,6917.943,95.439,541.132,538.4830000000002,0.0
53973.0,STARLINK-5156,PAYLOAD,2022-12-02 14:00:01,15.08860268,0.0001825,53.214,180.05700000000004,66.7603,353.5254,-0.001736,-0.00027826,0.0,0 STARLINK-5156,1 53973U 22125K   22336.58334491 -.00027826  00000-0 -17360-2 0  9998,2 53973  53.2140 180.0570 0001825  66.7603 353.5254 15.08860268  1304,6917.818,95.436,540.946,538.4209999999998,0.0
53973.0,STARLINK-5156,PAYLOAD,2022-12-02 16:00:00,15.08871723,0.0001839,53.2141,179.6833,65.7638,87.4217,-0.0041121,-0.00065198,0.0,0 STARLINK-5156,1 53973U 22125K   22336.66667824 -.00065198  00000-0 -41121-2 0  9992,2 53973  53.2141 179.6833 0001839  65.7638  87.4217 15.08871723  9288,6917.783,95.436,540.9209999999998,538.376,0.0
53973.0,STARLINK-5156,PAYLOAD,2022-12-02 22:00:00,15.08815709,0.000191,53.2141,178.5623,59.7676,12.1315,0.00076941,0.0001197,0.0,0 STARLINK-5156,1 53973U 22125K   22336.91667824  .00011970  00000-0  76941-3 0  9996,2 53973  53.2141 178.5623 0001910  59.7676  12.1315 15.08815709  1309,6917.955,95.439,541.141,538.498,0.0
53973.0,STARLINK-5156,PAYLOAD,2022-12-03 08:00:01,15.08822931,0.0001769,53.2142,176.6903,62.8894,113.482,0.00067345,0.00010441,0.0,0 STARLINK-5156,1 53973U 22125K   22337.33334491  .00010441  00000-0  67345-3 0  9994,2 53973  53.2142 176.6903 0001769  62.8894 113.4820 15.08822931  9386,6917.933000000001,95.439,541.021,538.5740000000002,0.0
53973.0,STARLINK-5156,PAYLOAD,2022-12-03 14:00:01,15.08833208,0.0001834,53.2143,175.5677,66.2862,28.7633,0.00057947,8.945e-05,0.0,0 STARLINK-5156,1 53973U 22125K   22337.58334491  .00008945  00000-0  57947-3 0  9994,2 53973  53.2143 175.5677 0001834  66.2862  28.7633 15.08833208  1302,6917.901,95.438,541.035,538.497,0.0
53973.0,STARLINK-5156,PAYLOAD,2022-12-03 22:00:00,15.08822833,0.0001964,53.2143,174.07299999999995,60.0493,46.5946,0.0011979,0.00018819,0.0,0 STARLINK-5156,1 53973U 22125K   22337.91667824  .00018819  00000-0  11979-2 0  9995,2 53973  53.2143 174.0730 0001964  60.0493  46.5946 15.08822833  1309,6917.933000000001,95.439,541.1569999999998,538.439,0.0
53973.0,STARLINK-5156,PAYLOAD,2022-12-04 14:00:01,15.08846277,0.0001873,53.2144,171.0784,67.3547,62.4625,9.122e-05,1.164e-05,0.0,0 STARLINK-5156,1 53973U 22125K   22338.58334491  .00001164  00000-0  91220-4 0  9994,2 53973  53.2144 171.0784 0001873  67.3547  62.4625 15.08846277  9571,6917.861,95.437,541.0219999999998,538.43,0.0
53973.0,STARLINK-5156,PAYLOAD,2022-12-04 22:00:00,15.08829412,0.0001977,53.2142,169.5837,60.6207,80.8048,0.0016832999999999,0.00026596,0.0,0 STARLINK-5156,1 53973U 22125K   22338.91667824  .00026596  00000-0  16833-2 0  9991,2 53973  53.2142 169.5837 0001977  60.6207  80.8048 15.08829412  1302,6917.913000000001,95.438,541.145,538.41,0.0
53973.0,STARLINK-5156,PAYLOAD,2022-12-05 14:00:01,15.08859186,0.0001864,53.2142,166.5891,68.7025,95.9819,-0.00033155,-5.564e-05,0.0,0 STARLINK-5156,1 53973U 22125K   22339.58335648 -.00005564  00000-0 -33155-3 0  9992,2 53973  53.2142 166.5891 0001864  68.7025  95.9819 15.08859186  1305,6917.821999999999,95.436,540.976,538.3969999999998,0.0
53973.0,STARLINK-5156,PAYLOAD,2022-12-05 16:00:00,15.088665300000002,0.0001871,53.214,166.2156,66.6208,190.9029,-0.0015925,-0.00025562,0.0,0 STARLINK-5156,1 53973U 22125K   22339.66667824 -.00025562  00000-0 -15925-2 0  9999,2 53973  53.2140 166.2156 0001871  66.6208 190.9029 15.08866530  9737,6917.799,95.436,540.9590000000002,538.37,0.0
53973.0,STARLINK-5156,PAYLOAD,2022-12-05 19:37:57,15.08843042,0.0001826,53.2148,165.5355,64.4088,295.7092,0.00011668,1.569e-05,0.0,0 STARLINK-5156,1 53973U 22125K   22339.81803148  .00001569  00000-0  11668-3 0  9997,2 53973  53.2148 165.5355 0001826  64.4088 295.7092 15.08843042  9692,6917.871,95.437,540.999,538.4730000000002,0.0
53973.0,STARLINK-5156,PAYLOAD,2022-12-06 13:07:13,15.08836606,0.0001834,53.2158,162.2656,70.5697,289.5493,6.771e-06,-1.8e-06,0.0,0 STARLINK-5156,1 53973U 22125K   22340.54667829 -.00000180  00000-0  67710-5 0  9993,2 53973  53.2158 162.2656 0001834  70.5697 289.5493 15.08836606  9801,6917.891,95.438,541.025,538.487,0.0
53973.0,STARLINK-5156,PAYLOAD,2022-12-06 19:28:45,15.08835171,0.0001852,53.2157,161.076,70.8048,289.3144,-7.8848e-06,-4.14e-06,0.0,0 STARLINK-5156,1 53973U 22125K   22340.81163997 -.00000414  00000-0 -78848-5 0  9995,2 53973  53.2157 161.0760 0001852  70.8048 289.3144 15.08835171  9847,6917.895,95.438,541.0409999999998,538.479,0.0
53973.0,STARLINK-5156,PAYLOAD,2022-12-06 21:04:08,15.08834374,0.0001814,53.2154,160.7784,69.2552,290.8634,-1.8661e-05,-5.85e-06,0.0,0 STARLINK-5156,1 53973U 22125K   22340.87788028 -.00000585  00000-0 -18661-4 0  9994,2 53973  53.2154 160.7784 0001814  69.2552 290.8634 15.08834374  9920,6917.898,95.438,541.0169999999998,538.508,0.0
53973.0,STARLINK-5156,PAYLOAD,2022-12-07 14:33:24,15.08821438,0.0001808,53.2155,157.5067,67.8018,292.3165,-0.00016203,-2.865e-05,0.0,0 STARLINK-5156,1 53973U 22125K   22341.60653638 -.00002865  00000-0 -16203-3 0  9996,2 53973  53.2155 157.5067 0001808  67.8018 292.3165 15.08821438  9960,6917.937,95.439,541.053,538.5509999999998,0.0
